STARLINK-36520          
1 67466U 26008X   26037.16668981 -.02126484  00000+0 -29904-1 0  9991
2 67466  42.9993  24.9794 0001117 260.6778  15.1334 15.59003342  4731
STARLINK-36425          
1 67467U 26008Y   26037.16668981 -.00082084  00000+0 -14081-2 0  9998
2 67467  43.0000  25.2983 0000977 241.3974 265.1146 15.50579150  4738
STARLINK-36414          
1 67468U 26008Z   26037.16668981 -.02121734  00000+0 -31916-1 0  9992
2 67468  43.0001  24.7623 0001251 268.5918  93.3276 15.57226884  4735
STARLINK-36441          
1 67469U 26008AA  26037.16668981 -.02053525  00000+0 -34770-1 0  9996
2 67469  42.9998  24.8767 0001169 256.0653  59.2836 15.53951828  4737
STARLINK-36454          
1 67470U 26008AB  26037.16668981 -.02100241  00000+0 -33428-1 0  9995
2 67470  42.9999  24.8017 0001121 266.0676  78.9905 15.55692872  4730
STARLINK-36334          
1 67471U 26008AC  26037.16668981 -.02126952  00000+0 -29626-1 0  9998
2 67471  43.0004  24.6892 0001107 276.3480 114.7266 15.59252227  4739
STARLINK-36269          
1 67472U 26008AD  26037.16668981 -.02121139  00000+0 -31866-1 0  9990
2 67472  42.9998  24.7390 0001115 265.6256 104.4704 15.57261024  4753
STARLINK-36408          
1 67473U 26008AE  26037.16668981 -.02101618  00000+0 -34722-1 0  9995
2 67473  42.9996  24.8257 0001024 268.4733  66.4287 15.54693143  4756
ALSAT-3A                
1 67474U 26009A   26037.15139700  .00010435  00000+0  44031-3 0  9996
2 67474  97.4679 111.8229 0012276 178.8467 181.2801 15.23409916  3324
CZ-2C R/B               
1 67475U 26009B   26037.18207396  .00004902  00000+0  32932-3 0  9996
2 67475  97.1761 110.0453 0100321 146.7667 213.9914 15.03110715  3343
TIANQI-37               
1 67476U 26010A   26037.15719907  .00000383  00000+0  27224-3 0  9999
2 67476  44.9830 306.3143 0012954  59.3518 300.8596 14.13527097  3027
TIANQI-38               
1 67477U 26010B   26037.15333923  .00000421  00000+0  29034-3 0  9994
2 67477  44.9792 306.2854 0011782  64.6500 295.5557 14.13904253  3021
