CCSDS_OMM_VERS = 2.0
CREATION_DATE  = 
ORIGINATOR     = 

OBJECT_NAME    = STARLINK-36520
OBJECT_ID      = 2026-008X
CENTER_NAME    = EARTH
REF_FRAME      = TEME
TIME_SYSTEM    = UTC
MEAN_ELEMENT_THEORY = SGP/SGP4

EPOCH          = 2026-02-06T04:00:01.999584
MEAN_MOTION    = 15.59003342
ECCENTRICITY   = .0001117
INCLINATION    = 42.9993
RA_OF_ASC_NODE = 24.9794
ARG_OF_PERICENTER = 260.6778
MEAN_ANOMALY   = 15.1334

EPHEMERIS_TYPE = 0
CLASSIFICATION_TYPE = U
NORAD_CAT_ID   = 67466
ELEMENT_SET_NO = 999
REV_AT_EPOCH   = 473
BSTAR          = -.29904E-1
MEAN_MOTION_DOT = -.2126484E-1
MEAN_MOTION_DDOT = 0

CCSDS_OMM_VERS = 2.0
CREATION_DATE  = 
ORIGINATOR     = 

OBJECT_NAME    = STARLINK-36425
OBJECT_ID      = 2026-008Y
CENTER_NAME    = EARTH
REF_FRAME      = TEME
TIME_SYSTEM    = UTC
MEAN_ELEMENT_THEORY = SGP/SGP4

EPOCH          = 2026-02-06T04:00:01.999584
MEAN_MOTION    = 15.50579150
ECCENTRICITY   = .0000977
INCLINATION    = 43.0000
RA_OF_ASC_NODE = 25.2983
ARG_OF_PERICENTER = 241.3974
MEAN_ANOMALY   = 265.1146

EPHEMERIS_TYPE = 0
CLASSIFICATION_TYPE = U
NORAD_CAT_ID   = 67467
ELEMENT_SET_NO = 999
REV_AT_EPOCH   = 473
BSTAR          = -.14081E-2
MEAN_MOTION_DOT = -.82084E-3
MEAN_MOTION_DDOT = 0

CCSDS_OMM_VERS = 2.0
CREATION_DATE  = 
ORIGINATOR     = 

OBJECT_NAME    = STARLINK-36414
OBJECT_ID      = 2026-008Z
CENTER_NAME    = EARTH
REF_FRAME      = TEME
TIME_SYSTEM    = UTC
MEAN_ELEMENT_THEORY = SGP/SGP4

EPOCH          = 2026-02-06T04:00:01.999584
MEAN_MOTION    = 15.57226884
ECCENTRICITY   = .0001251
INCLINATION    = 43.0001
RA_OF_ASC_NODE = 24.7623
ARG_OF_PERICENTER = 268.5918
MEAN_ANOMALY   = 93.3276

EPHEMERIS_TYPE = 0
CLASSIFICATION_TYPE = U
NORAD_CAT_ID   = 67468
ELEMENT_SET_NO = 999
REV_AT_EPOCH   = 473
BSTAR          = -.31916E-1
MEAN_MOTION_DOT = -.2121734E-1
MEAN_MOTION_DDOT = 0

CCSDS_OMM_VERS = 2.0
CREATION_DATE  = 
ORIGINATOR     = 

OBJECT_NAME    = STARLINK-36441
OBJECT_ID      = 2026-008AA
CENTER_NAME    = EARTH
REF_FRAME      = TEME
TIME_SYSTEM    = UTC
MEAN_ELEMENT_THEORY = SGP/SGP4

EPOCH          = 2026-02-06T04:00:01.999584
MEAN_MOTION    = 15.53951828
ECCENTRICITY   = .0001169
INCLINATION    = 42.9998
RA_OF_ASC_NODE = 24.8767
ARG_OF_PERICENTER = 256.0653
MEAN_ANOMALY   = 59.2836

EPHEMERIS_TYPE = 0
CLASSIFICATION_TYPE = U
NORAD_CAT_ID   = 67469
ELEMENT_SET_NO = 999
REV_AT_EPOCH   = 473
BSTAR          = -.3477E-1
MEAN_MOTION_DOT = -.2053525E-1
MEAN_MOTION_DDOT = 0

CCSDS_OMM_VERS = 2.0
CREATION_DATE  = 
ORIGINATOR     = 

OBJECT_NAME    = STARLINK-36454
OBJECT_ID      = 2026-008AB
CENTER_NAME    = EARTH
REF_FRAME      = TEME
TIME_SYSTEM    = UTC
MEAN_ELEMENT_THEORY = SGP/SGP4

EPOCH          = 2026-02-06T04:00:01.999584
MEAN_MOTION    = 15.55692872
ECCENTRICITY   = .0001121
INCLINATION    = 42.9999
RA_OF_ASC_NODE = 24.8017
ARG_OF_PERICENTER = 266.0676
MEAN_ANOMALY   = 78.9905

EPHEMERIS_TYPE = 0
CLASSIFICATION_TYPE = U
NORAD_CAT_ID   = 67470
ELEMENT_SET_NO = 999
REV_AT_EPOCH   = 473
BSTAR          = -.33428E-1
MEAN_MOTION_DOT = -.2100241E-1
MEAN_MOTION_DDOT = 0

CCSDS_OMM_VERS = 2.0
CREATION_DATE  = 
ORIGINATOR     = 

OBJECT_NAME    = STARLINK-36334
OBJECT_ID      = 2026-008AC
CENTER_NAME    = EARTH
REF_FRAME      = TEME
TIME_SYSTEM    = UTC
MEAN_ELEMENT_THEORY = SGP/SGP4

EPOCH          = 2026-02-06T04:00:01.999584
MEAN_MOTION    = 15.59252227
ECCENTRICITY   = .0001107
INCLINATION    = 43.0004
RA_OF_ASC_NODE = 24.6892
ARG_OF_PERICENTER = 276.3480
MEAN_ANOMALY   = 114.7266

EPHEMERIS_TYPE = 0
CLASSIFICATION_TYPE = U
NORAD_CAT_ID   = 67471
ELEMENT_SET_NO = 999
REV_AT_EPOCH   = 473
BSTAR          = -.29626E-1
MEAN_MOTION_DOT = -.2126952E-1
MEAN_MOTION_DDOT = 0

CCSDS_OMM_VERS = 2.0
CREATION_DATE  = 
ORIGINATOR     = 

OBJECT_NAME    = STARLINK-36269
OBJECT_ID      = 2026-008AD
CENTER_NAME    = EARTH
REF_FRAME      = TEME
TIME_SYSTEM    = UTC
MEAN_ELEMENT_THEORY = SGP/SGP4

EPOCH          = 2026-02-06T04:00:01.999584
MEAN_MOTION    = 15.57261024
ECCENTRICITY   = .0001115
INCLINATION    = 42.9998
RA_OF_ASC_NODE = 24.7390
ARG_OF_PERICENTER = 265.6256
MEAN_ANOMALY   = 104.4704

EPHEMERIS_TYPE = 0
CLASSIFICATION_TYPE = U
NORAD_CAT_ID   = 67472
ELEMENT_SET_NO = 999
REV_AT_EPOCH   = 475
BSTAR          = -.31866E-1
MEAN_MOTION_DOT = -.2121139E-1
MEAN_MOTION_DDOT = 0

CCSDS_OMM_VERS = 2.0
CREATION_DATE  = 
ORIGINATOR     = 

OBJECT_NAME    = STARLINK-36408
OBJECT_ID      = 2026-008AE
CENTER_NAME    = EARTH
REF_FRAME      = TEME
TIME_SYSTEM    = UTC
MEAN_ELEMENT_THEORY = SGP/SGP4

EPOCH          = 2026-02-06T04:00:01.999584
MEAN_MOTION    = 15.54693143
ECCENTRICITY   = .0001024
INCLINATION    = 42.9996
RA_OF_ASC_NODE = 24.8257
ARG_OF_PERICENTER = 268.4733
MEAN_ANOMALY   = 66.4287

EPHEMERIS_TYPE = 0
CLASSIFICATION_TYPE = U
NORAD_CAT_ID   = 67473
ELEMENT_SET_NO = 999
REV_AT_EPOCH   = 475
BSTAR          = -.34722E-1
MEAN_MOTION_DOT = -.2101618E-1
MEAN_MOTION_DDOT = 0

CCSDS_OMM_VERS = 2.0
CREATION_DATE  = 
ORIGINATOR     = 

OBJECT_NAME    = ALSAT-3A
OBJECT_ID      = 2026-009A
CENTER_NAME    = EARTH
REF_FRAME      = TEME
TIME_SYSTEM    = UTC
MEAN_ELEMENT_THEORY = SGP/SGP4

EPOCH          = 2026-02-06T03:38:00.700800
MEAN_MOTION    = 15.23409916
ECCENTRICITY   = .0012276
INCLINATION    = 97.4679
RA_OF_ASC_NODE = 111.8229
ARG_OF_PERICENTER = 178.8467
MEAN_ANOMALY   = 181.2801

EPHEMERIS_TYPE = 0
CLASSIFICATION_TYPE = U
NORAD_CAT_ID   = 67474
ELEMENT_SET_NO = 999
REV_AT_EPOCH   = 332
BSTAR          = .44031E-3
MEAN_MOTION_DOT = .10435E-3
MEAN_MOTION_DDOT = 0

CCSDS_OMM_VERS = 2.0
CREATION_DATE  = 
ORIGINATOR     = 

OBJECT_NAME    = CZ-2C R/B
OBJECT_ID      = 2026-009B
CENTER_NAME    = EARTH
REF_FRAME      = TEME
TIME_SYSTEM    = UTC
MEAN_ELEMENT_THEORY = SGP/SGP4

EPOCH          = 2026-02-06T04:22:11.190144
MEAN_MOTION    = 15.03110715
ECCENTRICITY   = .0100321
INCLINATION    = 97.1761
RA_OF_ASC_NODE = 110.0453
ARG_OF_PERICENTER = 146.7667
MEAN_ANOMALY   = 213.9914

EPHEMERIS_TYPE = 0
CLASSIFICATION_TYPE = U
NORAD_CAT_ID   = 67475
ELEMENT_SET_NO = 999
REV_AT_EPOCH   = 334
BSTAR          = .32932E-3
MEAN_MOTION_DOT = .4902E-4
MEAN_MOTION_DDOT = 0

CCSDS_OMM_VERS = 2.0
CREATION_DATE  = 
ORIGINATOR     = 

OBJECT_NAME    = TIANQI-37
OBJECT_ID      = 2026-010A
CENTER_NAME    = EARTH
REF_FRAME      = TEME
TIME_SYSTEM    = UTC
MEAN_ELEMENT_THEORY = SGP/SGP4

EPOCH          = 2026-02-06T03:46:21.999648
MEAN_MOTION    = 14.13527097
ECCENTRICITY   = .0012954
INCLINATION    = 44.9830
RA_OF_ASC_NODE = 306.3143
ARG_OF_PERICENTER = 59.3518
MEAN_ANOMALY   = 300.8596

EPHEMERIS_TYPE = 0
CLASSIFICATION_TYPE = U
NORAD_CAT_ID   = 67476
ELEMENT_SET_NO = 999
REV_AT_EPOCH   = 302
BSTAR          = .27224E-3
MEAN_MOTION_DOT = .383E-5
MEAN_MOTION_DDOT = 0

CCSDS_OMM_VERS = 2.0
CREATION_DATE  = 
ORIGINATOR     = 

OBJECT_NAME    = TIANQI-38
OBJECT_ID      = 2026-010B
CENTER_NAME    = EARTH
REF_FRAME      = TEME
TIME_SYSTEM    = UTC
MEAN_ELEMENT_THEORY = SGP/SGP4

EPOCH          = 2026-02-06T03:40:48.509472
MEAN_MOTION    = 14.13904253
ECCENTRICITY   = .0011782
INCLINATION    = 44.9792
RA_OF_ASC_NODE = 306.2854
ARG_OF_PERICENTER = 64.6500
MEAN_ANOMALY   = 295.5557

EPHEMERIS_TYPE = 0
CLASSIFICATION_TYPE = U
NORAD_CAT_ID   = 67477
ELEMENT_SET_NO = 999
REV_AT_EPOCH   = 302
BSTAR          = .29034E-3
MEAN_MOTION_DOT = .421E-5
MEAN_MOTION_DDOT = 0

